ID,Canonical ID,Site Name,Site Code,EU Site ID,Environment Type,Publisher,Data Processor,Data Owner,Installed by,Site Operator,Quality Assurance Network,URI,Download URL,Metadata URL,opened,closed,status,Address,latitude,longitude,Altitude (m),inlet height (m),Distance from road (m),license,NO2 (Nitrogen Dioxide),O3 (Ozone),PM10,PM25,SO2 (Sulpher Dioxide),Black smoke,Government Region,Local Authority,Derived From
defra:sh0,SH0,Southampton A33,UKA00613,GB1056A,Urban Traffic,Defra,,,,Bureau Veritas,AURN,https://uk-air.defra.gov.uk/networks/site-info?uka_id=UKA00613,https://uk-air.defra.gov.uk/data/data_selector,https://uk-air.defra.gov.uk/networks/site-info?uka_id=UKA00613,2015-01-01,present,active,unknown,50.920265,-1.463484,5,unknown,,OGL,yes,no,yes,no,no,,South East,,ricardo:sh0
defra:sh1,SH1,Southampton Centre Defre,UKA00235,GB0598A,Urban Background,Defra,,,,Bureau Veritas and Ricardo,AURN; Automatic Hydrocarbon Monitoring Network; Non-Automatic Hydrocarbon Network,https://uk-air.defra.gov.uk/networks/site-info?uka_id=UKA00235,https://uk-air.defra.gov.uk/data/data_selector,https://uk-air.defra.gov.uk/networks/site-info?uka_id=UKA00235,1994-01-04,present,active,Southampton,50.90814,-1.395778,7,unknown,,OGL,yes,yes,yes,yes,yes,no,South East,,ricardo:sh1
defra:uka11043,UKA11043,SOUTHAMPTON 22,UKA11043,n/a,unknown,Defra,,,,unknown,Black Smoke & SO2,https://uk-air.defra.gov.uk/networks/site-info?uka_id=UKA11043,,https://uk-air.defra.gov.uk/networks/site-info?uka_id=UKA11043,1961-04-04,1977-03-28,closed,unknown,50.911338,-1.402552,unknown,unknown,,OGL,no,no,no,no,yes,yes,South East,,
defra:uka11044,UKA11044,SOUTHAMPTON 23,UKA11044,n/a,unknown,Defra,,,,unknown,Black Smoke & SO2,https://uk-air.defra.gov.uk/networks/site-info?uka_id=UKA11044,,https://uk-air.defra.gov.uk/networks/site-info?uka_id=UKA11044,1961-04-04,1962-04-02,closed,unknown,50.897702,-1.3742871,unknown,unknown,,OGL,no,no,no,no,yes,yes,South East,,
defra:uka11045,UKA11045,SOUTHAMPTON 24,UKA11045,n/a,unknown,Defra,,,,unknown,Black Smoke & SO2,https://uk-air.defra.gov.uk/networks/site-info?uka_id=UKA11045,,https://uk-air.defra.gov.uk/networks/site-info?uka_id=UKA11045,1961-04-04,1981-03-30,closed,unknown,50.916855,-1.4266648,unknown,unknown,,OGL,no,no,no,no,yes,yes,South East,,
defra:uka11046,UKA11046,SOUTHAMPTON 26,UKA11046,n/a,unknown,Defra,,,,unknown,Black Smoke & SO2,https://uk-air.defra.gov.uk/networks/site-info?uka_id=UKA11046,,https://uk-air.defra.gov.uk/networks/site-info?uka_id=UKA11046,1961-04-04,1962-04-02,closed,unknown,50.922879,-1.3739495,unknown,unknown,,OGL,no,no,no,no,yes,yes,South East,,
defra:uka11047,UKA11047,SOUTHAMPTON 28,UKA11047,n/a,unknown,Defra,,,,unknown,Black Smoke & SO2,https://uk-air.defra.gov.uk/networks/site-info?uka_id=UKA11047,,https://uk-air.defra.gov.uk/networks/site-info?uka_id=UKA11047,1961-04-04,1962-04-02,closed,unknown,50.938285,-1.3965141,unknown,unknown,,OGL,no,no,no,no,yes,yes,South East,,
defra:uka11048,UKA11048,SOUTHAMPTON 29,UKA11048,n/a,unknown,Defra,,,,unknown,Black Smoke & SO2,https://uk-air.defra.gov.uk/networks/site-info?uka_id=UKA11048,,https://uk-air.defra.gov.uk/networks/site-info?uka_id=UKA11048,1961-04-04,1972-03-27,closed,unknown,50.893303,-1.3928298,unknown,unknown,,OGL,no,no,no,no,yes,yes,South East,,
defra:uka11049,UKA11049,SOUTHAMPTON 30,UKA11049,n/a,unknown,Defra,,,,unknown,Black Smoke & SO2,https://uk-air.defra.gov.uk/networks/site-info?uka_id=UKA11049,,https://uk-air.defra.gov.uk/networks/site-info?uka_id=UKA11049,1961-04-04,1965-04-05,closed,unknown,50.91911,-1.3427024,unknown,unknown,,OGL,no,no,no,no,yes,yes,South East,,
defra:uka11717,UKA11717,SOUTHAMPTON 33,UKA11717,n/a,unknown,Defra,,,,unknown,Black Smoke & SO2,https://uk-air.defra.gov.uk/networks/site-info?uka_id=UKA11717,,https://uk-air.defra.gov.uk/networks/site-info?uka_id=UKA11717,1965-04-06,1977-03-28,closed,unknown,50.922871,-1.3725269,unknown,unknown,,OGL,no,no,no,no,yes,yes,South East,,
defra:uka11801,UKA11801,FAWLEY 13,UKA11801,n/a,unknown,Defra,,,,unknown,Black Smoke & SO2,https://uk-air.defra.gov.uk/networks/site-info?uka_id=UKA11801,,https://uk-air.defra.gov.uk/networks/site-info?uka_id=UKA11801,1966-04-05,1981-03-30,closed,unknown,50.876752,-1.3262422,unknown,unknown,,OGL,no,no,no,no,yes,yes,South East,,
defra:uka11809,UKA11809,FAWLEY 21,UKA11809,n/a,unknown,Defra,,,,unknown,Black Smoke & SO2,https://uk-air.defra.gov.uk/networks/site-info?uka_id=UKA11809,,https://uk-air.defra.gov.uk/networks/site-info?uka_id=UKA11809,1966-04-05,1981-03-30,closed,unknown,50.898706,-1.3941816,unknown,unknown,,OGL,no,no,no,no,yes,yes,South East,,
defra:uka12267,UKA12267,SOUTHAMPTON 35,UKA12267,n/a,unknown,Defra,,,,unknown,Black Smoke & SO2,https://uk-air.defra.gov.uk/networks/site-info?uka_id=UKA12267,,https://uk-air.defra.gov.uk/networks/site-info?uka_id=UKA12267,1971-03-30,1982-03-29,closed,unknown,50.892404,-1.3928415,unknown,unknown,,OGL,no,no,no,no,yes,yes,South East,,
defra:uka12860,UKA12860,SOUTHAMPTON 36,UKA12860,n/a,unknown,Defra,,,,unknown,Black Smoke & SO2,https://uk-air.defra.gov.uk/networks/site-info?uka_id=UKA12860,,https://uk-air.defra.gov.uk/networks/site-info?uka_id=UKA12860,1977-03-29,1982-03-29,closed,unknown,50.930049,-1.3695845,unknown,unknown,,OGL,no,no,no,no,yes,yes,South East,,
defra:uka12861,S37,SOUTHAMPTON 37,UKA12861,GB0268A,unknown,Defra,,,,unknown,Black Smoke & SO2,https://uk-air.defra.gov.uk/networks/site-info?uka_id=UKA12861,,https://uk-air.defra.gov.uk/networks/site-info?uka_id=UKA12861,1977-03-29,1992-03-30,closed,unknown,50.907763,-1.4068646,unknown,unknown,,OGL,no,no,no,no,yes,yes,South East,,
defra:uka14305,UKA14305,SOUTHAMPTON 5N,UKA14305,n/a,unknown,Defra,,,,unknown,DEFRA NO2 Diffusion Tube,https://uk-air.defra.gov.uk/networks/site-info?uka_id=UKA14305,,https://uk-air.defra.gov.uk/networks/site-info?uka_id=UKA14305,1992-12-29,present,active,70 BITTERNE ROAD SOUTHAMPTON,50.916562,-1.369767,20,unknown,,OGL,yes,no,no,no,no,no,South East,,
defra:uka14306,UKA14306,SOUTHAMPTON 6N,UKA14306,n/a,unknown,Defra,,,,unknown,DEFRA NO2 Diffusion Tube,https://uk-air.defra.gov.uk/networks/site-info?uka_id=UKA14306,,https://uk-air.defra.gov.uk/networks/site-info?uka_id=UKA14306,1992-12-29,2000-11-28,closed,LAMP POST N SIDE ENGLEFIELD RD OPPOSITE 1A ENGLEFIELD RD SOUTHAMPTON,50.916562,-1.369767,21,unknown,,OGL,yes,no,no,no,no,no,South East,,
defra:uka14307,UKA14307,SOUTHAMPTON 7N,UKA14307,n/a,unknown,Defra,,,,unknown,DEFRA NO2 Diffusion Tube,https://uk-air.defra.gov.uk/networks/site-info?uka_id=UKA14307,,https://uk-air.defra.gov.uk/networks/site-info?uka_id=UKA14307,1992-12-29,present,active,CORNER CASTLESHAW CLOSE AND 50 PENNINE ROAD SOUTHAMPTON,50.919675,-1.452238,7,unknown,,OGL,yes,no,no,no,no,no,South East,,
defra:uka14308,UKA14308,SOUTHAMPTON 9N,UKA14308,n/a,unknown,Defra,,,,unknown,DEFRA NO2 Diffusion Tube,https://uk-air.defra.gov.uk/networks/site-info?uka_id=UKA14308,,https://uk-air.defra.gov.uk/networks/site-info?uka_id=UKA14308,1992-12-29,present,active,37 LANDSEER ROAD SOUTHAMPTON,50.899344,-1.345825,38,unknown,,OGL,yes,no,no,no,no,no,South East,,
defra:uka16057,UKA16057,SOUTHAMPTON 11N,UKA16057,n/a,unknown,Defra,,,,unknown,DEFRA NO2 Diffusion Tube,https://uk-air.defra.gov.uk/networks/site-info?uka_id=UKA16057,,https://uk-air.defra.gov.uk/networks/site-info?uka_id=UKA16057,2003-12-20,present,active,PILGRIM COURT 206 MILLBROOK ROAD EAST SOUTHAMPTON SO15 1JS,50.909654,-1.425331,10,unknown,,OGL,yes,no,no,no,no,no,South East,,
defra:uka16058,UKA16058,SOUTHAMPTON 12N,UKA16058,n/a,unknown,Defra,,,,unknown,DEFRA NO2 Diffusion Tube,https://uk-air.defra.gov.uk/networks/site-info?uka_id=UKA16058,,https://uk-air.defra.gov.uk/networks/site-info?uka_id=UKA16058,2003-12-30,present,active,VICTORIA ROAD SOUTHAMPTON SO15 IYG,50.907821,-1.418242,6,unknown,,OGL,yes,no,no,no,no,no,South East,,
defra:uka16668,UKA16668,EASTLEIGH 6N,UKA16668,n/a,unknown,Defra,,,,unknown,DEFRA NO2 Diffusion Tube,https://uk-air.defra.gov.uk/networks/site-info?uka_id=UKA16668,,https://uk-air.defra.gov.uk/networks/site-info?uka_id=UKA16668,2005-05-03,present,active,206 LEIGH ROAD EASTLEIGH SO53 3AY,50.90488,-1.371346,18,unknown,,OGL,yes,no,no,no,no,no,South East,,
eea:sh0,SH0,Southampton A33 - UKA00613,GB1056A,GB1056A,Urban Traffic,EEA,unknown,,,unknown,unknown,https://www.eea.europa.eu/data-and-maps/explore-interactive-maps/up-to-date-air-quality-data,http://fme.discomap.eea.europa.eu/fmedatastreaming/AirQualityDownload/AQData_Extract.fmw?CountryCode=GB&CityName=&Pollutant=8&Year_from=2017&Year_to=2017&Station=Station_GB1056A&Samplingpoint=&Source=E1a&Output=HTML&UpdateDate=,http://aidef.apps.eea.europa.eu/?source=%7B%22query%22%3A%7B%22query_string%22%3A%7B%22query%22%3A%22Station_GB1056A%22%2C%22default_operator%22%3A%22OR%22%2C%22analyze_wildcard%22%3Atrue%7D%7D%2C%22display_type%22%3A%22tabular%22%7D,unknown,unknown,active,,50.920265,-1.463484,5,unknown,,CC BY 2.5 DK,yes,no,yes,no,no,,unknown,unknown,defra:sh0
eea:uka12861,S37,Southampton 37,GB0268A,GB0268A,Urban Background,EEA,,,,,,,,,,,,,,,unknown,,,CC BY 2.5 DK,,,,,,,,,defra:uka12861
eee:e1a,SE1A,Southampton E1a,,,,EEA,,,,,,http://discomap.eea.europa.eu/map/fme/AirQualityExport.htm,https://fme.discomap.eea.europa.eu/fmedatastreaming/AirQualityDownload/AQData_Extract.fmw?CountryCode=GB&CityName=Southampton&Pollutant=8&Year_from=2017&Year_to=2017&Station=&Samplingpoint=&Source=E1a&Output=HTML&UpdateDate=&TimeCoverage=Year,,,,,,,,,,,CC BY 2.5 DK,,,,,,,,,
eee:sh1,SH1,Southampton Centre - UKA00235,GB0598A,GB0598A,Urban Background,EEA,unknown,,,unknown,unknown,https://www.eea.europa.eu/data-and-maps/explore-interactive-maps/up-to-date-air-quality-data,http://fme.discomap.eea.europa.eu/fmedatastreaming/AirQualityDownload/AQData_Extract.fmw?CountryCode=GB&CityName=&Pollutant=8&Year_from=2017&Year_to=2017&Station=Station_GB0598A&Samplingpoint=&Source=E1a&Output=HTML&UpdateDate=,http://aidef.apps.eea.europa.eu/?source=%7B%22query%22%3A%7B%22query_string%22%3A%7B%22query%22%3A%22Station_GB0598A%22%2C%22default_operator%22%3A%22OR%22%2C%22analyze_wildcard%22%3Atrue%7D%7D%2C%22display_type%22%3A%22tabular%22%7D,unknown,unknown,active,,50.90814,-1.395778,7,unknown,,CC BY 2.5 DK,,yes,,,,,,,defra:sh1
hantsair:es1,ES1,Eastleigh - Southampton Road,ES1,unknown,Roadside,Hants Air,KCL,,unknown,unknown,Hants Standard,http://www.hantsair.org.uk/hampshire/asp/Bulletin.asp?la=Southampton&site=ES1,,http://www.hantsair.org.uk/hampshire/asp/PublicDetails.asp?la=Southampton&site=ES1,2015-10-15,present,active,"Southampton Road, Eastleigh",50.96166381,-1.353778315,unknown,unknown,unknown,,yes,no,yes,no,no,no,,Eastleigh,kcl:es1
hantsair:es2,ES2,Eastleigh - Steele Close,ES2,unknown,Urban Background,Hants Air,KCL,,unknown,unknown,Hants Standard,http://www.hantsair.org.uk/hampshire/asp/Bulletin.asp?la=Southampton&site=ES2,,http://www.hantsair.org.uk/hampshire/asp/PublicDetails.asp?la=Southampton&site=ES2,2015-10-15,present,active,"Steele Close, Chandlers Ford",50.97500076,-1.375513747,unknown,unknown,100,,yes,no,no,no,no,no,,Eastleigh,kcl:es2
hantsair:es3,ES3,Eastleigh - The Point,ES3,unknown,Roadside,Hants Air,KCL,,unknown,unknown,Hants Standard,http://www.hantsair.org.uk/hampshire/asp/Bulletin.asp?la=Southampton&site=ES3,,http://www.hantsair.org.uk/hampshire/asp/PublicDetails.asp?la=Southampton&site=ES3,2019-06-27,present,active,"The Point, Eastleigh",50.96994952,-1.356084492,unknown,3.5,8,,yes,no,no,no,no,no,,Eastleigh,kcl:es3
hantsair:mp1,MP1,Marchwood Power - Marchwood,MP1,unknown,Industrial,Hants Air,KCL,,Marchwood Power Ltd,EnviroTechnology PLC,Hants Standard,http://www.hantsair.org.uk/hampshire/asp/Bulletin.asp?la=Southampton&site=MP1,,http://www.hantsair.org.uk/hampshire/asp/PublicDetails.asp?la=Southampton&site=MP1 ,2001-09-17,2015-01-07,closed,"Magazine Lane, Marchwood Industrial Park, Marchwood",50.8985062,-1.445788068,unknown,2,n/a,,yes,no,yes,no,no,no,,Marchwood Power,kcl:mp1
hantsair:mp2,MP2,Marchwood Power - Millbrook Rd Soton,MP2,unknown,Industrial,Hants Air,KCL,,Marchwood Power Ltd,EnviroTechnology PLC,Hants Standard,http://www.hantsair.org.uk/hampshire/asp/Bulletin.asp?la=Southampton&site=MP2,,http://www.hantsair.org.uk/hampshire/asp/PublicDetails.asp?la=Southampton&site=MP2,2007-11-17,2015-01-06,closed,"Millbrook Rd, Western Docks, Southampton",50.912965,-1.436635,unknown,2,n/a,,yes,yes,no,no,no,no,,Marchwood Power,kcl:mp2
hantsair:nf001,NF1,New Forest - Holbury,NF1,unknown,Industrial,Hants Air,KCL,,unknown,unknown,Hants Standard,http://www.hantsair.org.uk/hampshire/asp/Bulletin.asp?la=Southampton&site=NF1,,http://www.hantsair.org.uk/hampshire/asp/PublicDetails.asp?la=Southampton&site=NF1,2001-01-01,2017-01-01,closed,Holbury Manor Infants School,50.833312,-1.391525,unknown,2,n/a,,yes,no,yes,no,yes,no,,New Forest,kcl:nf1
hantsair:nf002,NF2,New Forest - Fawley,NF2,unknown,Industrial,Hants Air,KCL,,unknown,unknown,Hants Standard,http://www.hantsair.org.uk/hampshire/asp/Bulletin.asp?la=Southampton&site=NF2,,http://www.hantsair.org.uk/hampshire/asp/PublicDetails.asp?la=Southampton&site=NF2,2002-01-01,2017-01-01,closed,"Jubiliee Hall, Fawley",50.826958,-1.349945,unknown,10,n/a,,no,no,no,no,yes,no,,New Forest,kcl:nf2
hantsair:nf004,NF4,New Forest - Totton,NF4,unknown,Roadside,Hants Air,KCL,,unknown,unknown,Hants Standard,http://www.hantsair.org.uk/hampshire/asp/Bulletin.asp?la=Southampton&site=NF4,,http://www.hantsair.org.uk/hampshire/asp/PublicDetails.asp?la=Southampton&site=NF4,2004-06-01,2017-01-01,closed,Totton,50.91745086,-1.486590016,unknown,2,unknown,,yes,no,yes,no,no,no,,New Forest,kcl:nf4
hantsair:sh0,SH0,Southampton - A33 Roadside AURN,SH0,unknown,Roadside,Hants Air,KCL,,unknown,Southampton City Council,AURN,http://www.hantsair.org.uk/hampshire/asp/Bulletin.asp?la=Southampton&site=SH0,http://www.hantsair.org.uk/hampshire/asp/DownloadSite.asp?la=Southampton&site=SH0&species1=NOm&species2=NO2m&species3=NOXm&species4=PM10m&species5=&species6=&start=1-jan-2019&end=2-jan-2019&res=6&period=15min&units=,http://www.hantsair.org.uk/hampshire/asp/PublicDetails.asp?la=Southampton&site=SH0,2015-12-04,present,active,"A33 Redbridge Road, Southampton",50.92054903,-1.463636866,unknown,3.5,unknown,,yes,no,yes,no,no,no,,Southampton,kcl:sh0
hantsair:sh1,SH1,Southampton Background AURN,SH1,unknown,Urban Background,Hants Air,KCL,,unknown,unknown,AURN,http://www.hantsair.org.uk/hampshire/asp/Bulletin.asp?la=Southampton&site=SH1,,http://www.hantsair.org.uk/hampshire/asp/PublicDetails.asp?la=Southampton&site=SH1 ,2003-01-01,present,active,"Brintons Road/Northern Road, Southampton",50.908158,-1.395776,unknown,3,unknown,,yes,yes,no,yes,yes,no,,Southampton,kcl:sh1
hantsair:sh2,SH2,Southampton - Redbridge,SH2,unknown,Roadside,Hants Air,KCL,,unknown,unknown,Hants Standard,http://www.hantsair.org.uk/hampshire/asp/Bulletin.asp?la=Southampton&site=SH2,,http://www.hantsair.org.uk/hampshire/asp/PublicDetails.asp?la=Southampton&site=SH2 ,1999-03-01,2014-03-07,closed,"Redbridge Community School, Redbridge Road",50.921744,-1.467165,unknown,2,10,,yes,yes,yes,no,yes,no,,Southampton,kcl:sh2
hantsair:sh3,SH3,Southampton - Onslow Road,SH3,unknown,Roadside,Hants Air,KCL,,unknown,unknown,Hants Standard,http://www.hantsair.org.uk/hampshire/asp/Bulletin.asp?la=Southampton&site=SH3,,http://www.hantsair.org.uk/hampshire/asp/PublicDetails.asp?la=Southampton&site=SH3 ,2003-01-01,present,active,"Onslow Road, Southampton",50.91283685,-1.399630851,unknown,2,3,,yes,no,no,no,no,no,,Southampton,kcl:sh3
hantsair:sh4,SH4,Southampton - Bitterne,SH4,unknown,Urban Background,Hants Air,KCL,,unknown,unknown,Hants Standard,http://www.hantsair.org.uk/hampshire/asp/Bulletin.asp?la=Southampton&site=SH4,,http://www.hantsair.org.uk/hampshire/asp/PublicDetails.asp?la=Southampton&site=SH4 ,2009-01-01,2014-01-02,closed,"Bitterne Road, Bitterne",50.917806,-1.375582,unknown,2,10,,yes,no,yes,no,yes,no,,Southampton,kcl:sh4
hantsair:sh5,SH5,Southampton - Victoria Road,SH5,unknown,Roadside,Hants Air,KCL,,unknown,unknown,Hants Standard,http://www.hantsair.org.uk/hampshire/asp/Bulletin.asp?la=Southampton&site=SH5,,http://www.hantsair.org.uk/hampshire/asp/PublicDetails.asp?la=Southampton&site=SH5 ,2011-07-08,present,active,Junction of Victoria and Portsmouth Road,50.89789275,-1.379246967,unknown,unknown,2,,yes,no,no,no,no,no,,Southampton,kcl:sh5
kcl:es1,ES1,Eastleigh - Southampton Road,ES1,unknown,Roadside,KCL ERG,KCL,unknown,unknown,Eastleigh Borough Council,unknown,https://api.erg.kcl.ac.uk/AirQuality/Daily/MonitoringIndex/Latest/SiteCode=ES1/Json,,https://api.erg.kcl.ac.uk/AirQuality/Information/MonitoringSiteSpecies/GroupName=Hampshire/Json,2015-10-15,present,unknown,unknown,50.96166381,-1.353778315,unknown,unknown,unknown,unknown,yes,no,yes,no,no,no,unknown,Hampshire,none
kcl:es2,ES2,Eastleigh - Steele Close,ES2,unknown,Urban Background,KCL ERG,KCL,unknown,unknown,Eastleigh Borough Council,unknown,https://api.erg.kcl.ac.uk/AirQuality/Daily/MonitoringIndex/Latest/SiteCode=ES2/Json,,https://api.erg.kcl.ac.uk/AirQuality/Information/MonitoringSiteSpecies/GroupName=Hampshire/Json,2015-10-15,present,unknown,unknown,50.97500076,-1.375513747,unknown,unknown,unknown,unknown,yes,no,no,no,no,no,unknown,Hampshire,none
kcl:es3,ES3,Eastleigh - The Point,ES3,unknown,Roadside,KCL ERG,KCL,unknown,unknown,Eastleigh Borough Council,unknown,https://api.erg.kcl.ac.uk/AirQuality/Daily/MonitoringIndex/Latest/SiteCode=ES3/Json,,https://api.erg.kcl.ac.uk/AirQuality/Information/MonitoringSiteSpecies/GroupName=Hampshire/Json,2019-06-27,present,unknown,unknown,50.96994952,-1.356084492,unknown,unknown,unknown,unknown,yes,no,no,no,no,no,unknown,Hampshire,none
kcl:nf1,NF1,New Forest - Holbury,NF1,unknown,Industrial,KCL ERG,KCL,unknown,unknown,New Forest District Council,unknown,https://api.erg.kcl.ac.uk/AirQuality/Daily/MonitoringIndex/Latest/SiteCode=NF1/Json,,https://api.erg.kcl.ac.uk/AirQuality/Information/MonitoringSiteSpecies/GroupName=Hampshire/Json,2001-01-01,2017-01-01,unknown,unknown,50.833312,-1.391525,unknown,unknown,unknown,unknown,yes,no,yes,no,yes,no,unknown,Hampshire,none
kcl:nf2,NF2,New Forest - Fawley,NF2,unknown,Industrial,KCL ERG,KCL,unknown,unknown,New Forest District Council,unknown,https://api.erg.kcl.ac.uk/AirQuality/Daily/MonitoringIndex/Latest/SiteCode=NF2/Json,,https://api.erg.kcl.ac.uk/AirQuality/Information/MonitoringSiteSpecies/GroupName=Hampshire/Json,2002-01-01,2017-01-01,unknown,unknown,50.826958,-1.349945,unknown,unknown,unknown,unknown,no,no,no,no,yes,no,unknown,Hampshire,none
kcl:nf4,NF4,New Forest - Totton,NF4,unknown,Roadside,KCL ERG,KCL,unknown,unknown,New Forest District Council,unknown,https://api.erg.kcl.ac.uk/AirQuality/Daily/MonitoringIndex/Latest/SiteCode=NF4/Json,,https://api.erg.kcl.ac.uk/AirQuality/Information/MonitoringSiteSpecies/GroupName=Hampshire/Json,2004-06-01,2017-01-01,unknown,unknown,50.91745086,-1.486590016,unknown,unknown,unknown,unknown,yes,no,yes,no,no,no,unknown,Hampshire,none
kcl:sh0,SH0,Southampton - A33 Roadside AURN,SH0,unknown,Roadside,KCL ERG,KCL,unknown,unknown,Southampton City Council,unknown,https://api.erg.kcl.ac.uk/AirQuality/Daily/MonitoringIndex/Latest/SiteCode=SH0/Json,,https://api.erg.kcl.ac.uk/AirQuality/Information/MonitoringSiteSpecies/GroupName=Hampshire/Json,2015-12-04,present,unknown,unknown,50.92054903,-1.463636866,unknown,unknown,unknown,unknown,yes,no,yes,no,no,no,unknown,Hampshire,none
kcl:sh1,SH1,Southampton Background AURN,SH1,unknown,Urban Background,KCL ERG,KCL,unknown,unknown,Southampton City Council,unknown,https://api.erg.kcl.ac.uk/AirQuality/Daily/MonitoringIndex/Latest/SiteCode=SH1/Json,,https://api.erg.kcl.ac.uk/AirQuality/Information/MonitoringSiteSpecies/GroupName=Hampshire/Json,2003-01-01,present,unknown,unknown,50.908158,-1.395776,unknown,unknown,unknown,unknown,yes,yes,yes,yes,yes,no,unknown,Hampshire,none
kcl:sh2,SH2,Southampton - Redbridge,SH2,unknown,Roadside,KCL ERG,KCL,unknown,unknown,Southampton City Council,unknown,https://api.erg.kcl.ac.uk/AirQuality/Daily/MonitoringIndex/Latest/SiteCode=SH2/Json,,https://api.erg.kcl.ac.uk/AirQuality/Information/MonitoringSiteSpecies/GroupName=Hampshire/Json,1999-03-01,2014-03-07,unknown,unknown,50.921744,-1.467165,unknown,unknown,unknown,unknown,yes,yes,yes,no,yes,no,unknown,Hampshire,none
kcl:sh3,SH3,Southampton - Onslow Road,SH3,unknown,Roadside,KCL ERG,KCL,unknown,unknown,Southampton City Council,unknown,https://api.erg.kcl.ac.uk/AirQuality/Daily/MonitoringIndex/Latest/SiteCode=SH3/Json,,https://api.erg.kcl.ac.uk/AirQuality/Information/MonitoringSiteSpecies/GroupName=Hampshire/Json,2005-07-01,present,unknown,unknown,50.91283685,-1.399630851,unknown,unknown,unknown,unknown,yes,no,no,no,no,no,unknown,Hampshire,none
kcl:sh4,SH4,Southampton - Bitterne,SH4,unknown,Urban Background,KCL ERG,KCL,unknown,unknown,Southampton City Council,unknown,https://api.erg.kcl.ac.uk/AirQuality/Daily/MonitoringIndex/Latest/SiteCode=SH4/Json,,https://api.erg.kcl.ac.uk/AirQuality/Information/MonitoringSiteSpecies/GroupName=Hampshire/Json,2009-01-01,2014-01-02,unknown,unknown,50.917806,-1.375582,unknown,unknown,unknown,unknown,yes,no,yes,no,yes,no,unknown,Hampshire,none
kcl:sh5,SH5,Southampton - Victoria Road,SH5,unknown,Roadside,KCL ERG,KCL,unknown,unknown,Southampton City Council,unknown,https://api.erg.kcl.ac.uk/AirQuality/Daily/MonitoringIndex/Latest/SiteCode=SH5/Json,,https://api.erg.kcl.ac.uk/AirQuality/Information/MonitoringSiteSpecies/GroupName=Hampshire/Json,2011-07-08,present,unknown,unknown,50.89789275,-1.379246967,unknown,unknown,unknown,unknown,yes,no,no,no,no,no,unknown,Hampshire,none
kcl:mp1,MP1,Marchwood Power - Marchwood,MP1,unknown,Industrial,KCL ERG,KCL,unknown,unknown,Marchwood Power Ltd,unknown,https://api.erg.kcl.ac.uk/AirQuality/Daily/MonitoringIndex/Latest/SiteCode=MP1/Json,,https://api.erg.kcl.ac.uk/AirQuality/Information/MonitoringSiteSpecies/GroupName=Hampshire/Json,2007-09-17,2015-01-07,unknown,unknown,50.8985062,-1.445788068,unknown,unknown,unknown,unknown,yes,no,yes,no,no,no,unknown,Hampshire,none
kcl:mp2,MP2,Marchwood Power - Millbrook Rd Soton,MP2,unknown,Industrial,KCL ERG,KCL,unknown,unknown,Marchwood Power Ltd,unknown,https://api.erg.kcl.ac.uk/AirQuality/Daily/MonitoringIndex/Latest/SiteCode=MP2/Json,,https://api.erg.kcl.ac.uk/AirQuality/Information/MonitoringSiteSpecies/GroupName=Hampshire/Json,2007-09-17,2015-01-06,unknown,unknown,50.912965,-1.436635,unknown,unknown,unknown,unknown,yes,yes,no,no,no,no,unknown,Hampshire,none
londonair:es1,ES1,Eastleigh - Southampton Road,ES1,unknown,Roadside,London Air,KCL,unknown,unknown,Eastleigh Borough Council,Hants,http://www.londonair.org.uk/london/asp/publicstats.asp?site=ES1,,,2015-10-15,present,active,"Southampton Road, Eastleigh",50.96166381,-1.353778315,unknown,unknown,unknown,Deferred to local authority,yes,no,yes,no,no,no,unknown,Eastleigh,kcl:es1
londonair:es2,ES2,Eastleigh - Steele Close,ES2,unknown,Urban Background,London Air,KCL,unknown,unknown,Eastleigh Borough Council,Hants,http://www.londonair.org.uk/london/asp/publicstats.asp?site=ES2,,,2015-10-15,present,active,"Steele Close, Chandlers Ford",50.97500076,-1.375513747,unknown,unknown,100,Deferred to local authority,yes,no,no,no,no,no,unknown,Eastleigh,kcl:es2
londonair:es3,ES3,Eastleigh - The Point,ES3,unknown,Roadside,London Air,KCL,unknown,unknown,Eastleigh Borough Council,Hants,http://www.londonair.org.uk/london/asp/publicstats.asp?site=ES3,,,2019-06-27,present,active,"The Point, Eastleigh",50.96994952,-1.356084492,unknown,2.5,8,Deferred to local authority,yes,no,no,no,no,no,unknown,Eastleigh,kcl:es3
londonair:nf1,NF1,New Forest - Holbury,NF1,unknown,Industrial,London Air,KCL,unknown,unknown,New Forest District Council,Hants,http://www.londonair.org.uk/london/asp/publicstats.asp?site=NF1,,,2001-01-01,2017-01-01,closed,Holbury Manor Infants School,50.833312,-1.391525,unknown,2,n/a,Deferred to local authority,yes,no,yes,no,yes,no,unknown,New Forest,kcl:nf1
londonair:nf2,NF2,New Forest - Fawley,NF2,unknown,Industrial,London Air,KCL,unknown,unknown,New Forest District Council,Hants,http://www.londonair.org.uk/london/asp/publicstats.asp?site=NF2,,,2002-01-01,2017-01-01,closed,"Jubiliee Hall, Fawley",50.826958,-1.349945,unknown,10,n/a,Deferred to local authority,no,no,no,no,yes,no,unknown,New Forest,kcl:nf2
londonair:nf4,NF4,New Forest - Totton,NF4,unknown,Roadside,London Air,KCL,unknown,unknown,New Forest District Council,Hants,http://www.londonair.org.uk/london/asp/publicstats.asp?site=NF3,,,2004-06-01,2017-01-01,closed,Totton,50.91745086,-1.486590016,unknown,2,unknown,Deferred to local authority,yes,no,yes,no,no,no,unknown,New Forest,kcl:nf4
londonair:sh0,SH0,Southampton - A33 Roadside AURN,SH0,unknown,Roadside,London Air,KCL,unknown,unknown,Southampton City Council,AURN,http://www.londonair.org.uk/london/asp/publicstats.asp?site=SH0,http://www.londonair.org.uk/london/asp/datasite.asp?site=SH0,http://www.londonair.org.uk/london/asp/publicdetails.asp?region=0&site=SH0&bulletin=&la_id=&postcode=&MapType=Google&VenueCode=,2015-12-04,present,active,"A33 Redbridge Road, Southampton",50.92054903,-1.463636866,unknown,3.5,unknown,Deferred to local authority,yes,no,yes,no,no,no,unknown,Southampton,kcl:sh0
londonair:sh1,SH1,Southampton Background AURN,SH1,unknown,Urban Background,London Air,KCL,unknown,unknown,Southampton City Council,AURN,http://www.londonair.org.uk/london/asp/publicstats.asp?site=SOUT,,,2003-01-01,present,active,"Brintons Road/Northern Road, Southampton",50.908158,-1.395776,unknown,3,unknown,Deferred to local authority,yes,yes,yes,yes,yes,no,unknown,Southampton,kcl:sh1
londonair:sh2,SH2,Southampton - Redbridge,SH2,unknown,Roadside,London Air,KCL,unknown,unknown,Southampton City Council,Hants,http://www.londonair.org.uk/london/asp/publicstats.asp?site=SH2,,,1999-03-01,2014-03-07,closed,"Redbridge Community School, Redbridge Road",50.921744,-1.467165,unknown,2,10,Deferred to local authority,yes,yes,yes,no,yes,no,unknown,Southampton,kcl:sh2
londonair:sh3,SH3,Southampton - Onslow Road,SH3,unknown,Roadside,London Air,KCL,unknown,unknown,Southampton City Council,Hants,http://www.londonair.org.uk/london/asp/publicstats.asp?site=SH3,,,2005-07-01,present,active,"Onslow Road, Southampton",50.91283685,-1.399630851,unknown,2,3,Deferred to local authority,yes,no,no,no,no,no,unknown,Southampton,kcl:sh3
londonair:sh4,SH4,Southampton - Bitterne,SH4,unknown,Urban Background,London Air,KCL,unknown,unknown,Southampton City Council,Hants,http://www.londonair.org.uk/london/asp/publicstats.asp?site=SH4,,,2009-01-01,2014-01-02,closed,"Bitterne Road, Bitterne",50.917806,-1.375582,unknown,2,10,Deferred to local authority,yes,no,yes,no,yes,no,unknown,Southampton,kcl:sh4
londonair:sh5,SH5,Southampton - Victoria Road,SH5,unknown,Roadside,London Air,KCL,unknown,unknown,Southampton City Council,Hants,http://www.londonair.org.uk/london/asp/publicstats.asp?site=SH5,,,2011-07-08,present,active,Junction of Victoria and Portsmouth Road,50.89789275,-1.379246967,unknown,unknown,2,Deferred to local authority,yes,no,no,no,no,no,unknown,Southampton,kcl:sh5
londonair:mp1,MP1,Marchwood Power - Marchwood,MP1,unknown,Industrial,London Air,KCL,unknown,unknown,Marchwood Power Ltd,Hants,http://www.londonair.org.uk/london/asp/publicstats.asp?site=MP1,,,2007-09-17,2015-01-07,closed,"Magazine Lane, Marchwood Industrial Park, Marchwood",50.8985062,-1.445788068,unknown,2,n/a,Deferred to local authority,yes,no,yes,no,no,no,unknown,,kcl:mp1
londonair:mp2,MP2,Marchwood Power - Millbrook Rd Soton,MP2,unknown,Industrial,London Air,KCL,unknown,unknown,Marchwood Power Ltd,Hants,http://www.londonair.org.uk/london/asp/publicstats.asp?site=MP2,,,2007-09-17,2015-01-06,closed,"Millbrook Rd, Western Docks, Southampton",50.912965,-1.436635,unknown,2,n/a,Deferred to local authority,yes,yes,no,no,no,no,unknown,,kcl:mp2
myair:es1,ES1,Southampton Road,ES1,unknown,Roadside,My-Air,KCL,Eastleigh,unknown,unknown,none,http://my-air.uk/site/?SiteCode=ES1,http://southampton.my-air.uk/singlela/relay/access.php?data=graph-data&SiteCode=ES1&StartDate=2019-07-30&EndDate=2019-08-07&download=1,http://my-air.uk/singlela/relay/access.php?data=annual&sitecode=ES1&year=2018,2015-10-15,present,active,unknown,50.96166381,-1.353778315,unknown,unknown,unknown,unknown,yes,no,yes,no,no,no,unknown,Eastleigh,kcl:es1
myair:es2,ES2,Steele Close,ES2,unknown,Urban Background,My-Air,KCL,Eastleigh,unknown,unknown,none,http://my-air.uk/site/?SiteCode=ES2,http://southampton.my-air.uk/singlela/relay/access.php?data=graph-data&SiteCode=ES2&StartDate=2019-07-30&EndDate=2019-08-07&download=1,http://my-air.uk/singlela/relay/access.php?data=annual&sitecode=ES2&year=2018,2015-10-15,present,active,unknown,50.97500076,-1.375513747,unknown,unknown,unknown,unknown,yes,no,no,no,no,no,unknown,Eastleigh,kcl:es2
myair:es3,ES3,The Point,ES3,unknown,Roadside,My-Air,KCL,Eastleigh,unknown,unknown,none,http://my-air.uk/site/?SiteCode=ES3,http://southampton.my-air.uk/singlela/relay/access.php?data=graph-data&SiteCode=ES3&StartDate=2019-07-30&EndDate=2019-08-07&download=1,http://my-air.uk/singlela/relay/access.php?data=annual&sitecode=ES3&year=2018,2019-06-27,present,active,unknown,50.96994952,-1.375513747,unknown,unknown,unknown,unknown,yes,no,no,no,no,no,unknown,Eastleigh,kcl:es3
myair:sh0,SH0,A33 Roadside AURN,SH0,unknown,Roadside,My-Air,KCL,Southampton,unknown,unknown,AURN,http://my-air.uk/site/?SiteCode=SH0,http://southampton.my-air.uk/singlela/relay/access.php?data=graph-data&SiteCode=SH0&StartDate=2019-07-30&EndDate=2019-08-07&download=1,http://my-air.uk/singlela/relay/access.php?data=annual&sitecode=SH0&year=2018,2015-12-04,present,active,unknown,50.92054903,-1.463636866,unknown,unknown,unknown,unknown,yes,no,yes,no,no,no,unknown,Southampton,kcl:sh0
myair:sh1,SH1,Southampton Background AURN,SH1,unknown,Urban Background,My-Air,KCL,Southampton,unknown,unknown,AURN,http://my-air.uk/site/?SiteCode=SH1,http://southampton.my-air.uk/singlela/relay/access.php?data=graph-data&SiteCode=SH1&StartDate=2019-07-30&EndDate=2019-08-07&download=1,http://my-air.uk/singlela/relay/access.php?data=annual&sitecode=SH1&year=2018,2003-01-01,present,active,unknown,50.908158,-1.395776,unknown,unknown,unknown,unknown,yes,yes,yes,yes,yes,no,unknown,Southampton,kcl:sh1
myair:sh2,SH2,Redbridge,SH2,unknown,unknown,My-Air,KCL,Southampton,unknown,unknown,none,http://my-air.uk/site/?SiteCode=SH2,http://southampton.my-air.uk/singlela/relay/access.php?data=graph-data&SiteCode=SH2&StartDate=2019-07-30&EndDate=2019-08-07&download=1,http://my-air.uk/singlela/relay/access.php?data=annual&sitecode=SH2&year=2018,1999-04-01,2014-04-07,closed,unknown,unknown,unknown,unknown,unknown,unknown,unknown,yes,yes,yes,no,yes,no,unknown,Southampton,kcl:sh2
myair:sh3,SH3,Onslow Road,SH3,unknown,Roadside,My-Air,KCL,Southampton,unknown,unknown,none,http://my-air.uk/site/?SiteCode=SH3,http://southampton.my-air.uk/singlela/relay/access.php?data=graph-data&SiteCode=SH3&StartDate=2019-07-30&EndDate=2019-08-07&download=1,http://my-air.uk/singlela/relay/access.php?data=annual&sitecode=SH3&year=2018,1999-04-01,2014-03-07,closed,unknown,50.91283685,-1.399630851,unknown,unknown,unknown,unknown,yes,no,no,no,no,no,unknown,Southampton,kcl:sh3
myair:sh4,SH4,Bitterne,SH4,unknown,unknown,My-Air,KCL,Southampton,unknown,unknown,none,http://my-air.uk/site/?SiteCode=SH4,http://southampton.my-air.uk/singlela/relay/access.php?data=graph-data&SiteCode=SH4&StartDate=2019-07-30&EndDate=2019-08-07&download=1,http://my-air.uk/singlela/relay/access.php?data=annual&sitecode=SH4&year=2018,2009-01-01,2014-01-02,closed,unknown,unknown,unknown,unknown,unknown,unknown,unknown,yes,no,yes,no,yes,no,unknown,Southampton,kcl:sh4
myair:sh5,SH5,Victoria Road,SH5,unknown,Roadside,My-Air,KCL,Southampton,unknown,unknown,none,http://my-air.uk/site/?SiteCode=SH5,http://southampton.my-air.uk/singlela/relay/access.php?data=graph-data&SiteCode=SH5&StartDate=2019-07-30&EndDate=2019-08-07&download=1,http://my-air.uk/singlela/relay/access.php?data=annual&sitecode=SH5&year=2018,2011-07-08,present,active,unknown,50.89789275,-1.379246967,unknown,unknown,unknown,unknown,yes,no,no,no,no,no,unknown,Southampton,kcl:sh5
ricardo:nf1,NF1,New Forest - Holbury,NF001,unknown,Urban Industrial,Ricardo,unknown,unknown,unknown,unknown,none,https://www.airqualityengland.co.uk/site/latest?site_id=NF001,,,2001-01-01,2017-03-20,closed,unknown,50.833312,-1.391525,unknown,2,unknown,unknown,yes,no,yes,no,yes,no,unknown,New Forest District Council,kcl:nf1
ricardo:nf2,NF2,New Forest - Fawley,NF002,unknown,Urban Industrial,Ricardo,unknown,unknown,unknown,unknown,none,https://www.airqualityengland.co.uk/site/latest?site_id=NF002,,,2002-01-01,present,active,unknown,50.826958,-1.349945,unknown,10,unknown,unknown,no,no,yes,no,yes,no,unknown,New Forest District Council,kcl:nf2
ricardo:nf4,NF4,New Forest - Totton,NF004,unknown,Roadside,Ricardo,unknown,unknown,unknown,unknown,none,https://www.airqualityengland.co.uk/site/latest?site_id=NF004,,,2004-06-01,present,active,unknown,50.917451,-1.48659,unknown,2,unknown,unknown,yes,no,yes,no,no,no,unknown,New Forest District Council,kcl:nf4
ricardo:sh0,SH0,Southampton A33,SA33,unknown,Rural,Ricardo,unknown,unknown,unknown,unknown,AURN,https://www.airqualityengland.co.uk/site/latest?site_id=SA33,https://www.airqualityengland.co.uk/site/data.php?site_id=SA33&parameter_id%5B%5D=NO2&parameter_id%5B%5D=GE10&f_query_id=1177331&data=%3C%3Fphp+print+htmlentities%28%24data%29%3B+%3F%3E&f_date_started=2019-08-01&f_date_ended=2019-08-06&la_id=331&action=download&submit=Download+Data,n/a,2016-01-01,present,active,unknown,50.920265,-1.463484,5,2.5,unknown,unknown,yes,no,yes,no,no,no,unknown,Southampton,kcl:sh0
ricardo:sh1,SH1,Southampton Centre Ricardo,SOUT,unknown,Urban Centre,Ricardo,unknown,unknown,unknown,unknown,AURN,https://www.airqualityengland.co.uk/site/latest?site_id=SOUT,,,1994-01-04,present,active,unknown,50.90814,-1.395778,7,unknown,unknown,unknown,yes,yes,yes,yes,yes,no,unknown,Southampton,kcl:sh1